{
    "links": {
        "self": "http://www.neowsapp.com/rest/v1/neo/3842638?api_key=iIulBulltgU6a56xZRHN4H3l9WmuAYTsLGpBGhQ2"
    },
    "id": "3842638",
    "neo_reference_id": "3842638",
    "name": "(2019 KY3)",
    "designation": "2019 KY3",
    "nasa_jpl_url": "http://ssd.jpl.nasa.gov/sbdb.cgi?sstr=3842638",
    "absolute_magnitude_h": 26.6,
    "estimated_diameter": {
        "kilometers": {
            "estimated_diameter_min": 0.0127219879,
            "estimated_diameter_max": 0.0284472297
        },
        "meters": {
            "estimated_diameter_min": 12.7219878539,
            "estimated_diameter_max": 28.4472296503
        },
        "miles": {
            "estimated_diameter_min": 0.0079050743,
            "estimated_diameter_max": 0.0176762835
        },
        "feet": {
            "estimated_diameter_min": 41.7388066307,
            "estimated_diameter_max": 93.330808926
        }
    },
    "is_potentially_hazardous_asteroid": false,
    "close_approach_data": [
        {
            "close_approach_date": "2019-06-02",
            "close_approach_date_full": "2019-Jun-02 05:21",
            "epoch_date_close_approach": 1559452860000,
            "relative_velocity": {
                "kilometers_per_second": "16.3119856527",
                "kilometers_per_hour": "58723.148349873",
                "miles_per_hour": "36488.2807066197"
            },
            "miss_distance": {
                "astronomical": "0.0058675596",
                "lunar": "2.2824806844",
                "kilometers": "877774.418258052",
                "miles": "545423.7318710376"
            },
            "orbiting_body": "Earth"
        },
        {
            "close_approach_date": "2019-06-02",
            "close_approach_date_full": "2019-Jun-02 12:37",
            "epoch_date_close_approach": 1559479020000,
            "relative_velocity": {
                "kilometers_per_second": "16.4623159765",
                "kilometers_per_hour": "59264.3375152484",
                "miles_per_hour": "36824.5546077387"
            },
            "miss_distance": {
                "astronomical": "0.0056652047",
                "lunar": "2.2037646283",
                "kilometers": "847502.556233989",
                "miles": "526613.6690434882"
            },
            "orbiting_body": "Moon"
        }
    ],
    "orbital_data": {
        "orbit_id": "3",
        "orbit_determination_date": "2019-12-16 06:17:49",
        "first_observation_date": "2019-05-25",
        "last_observation_date": "2019-06-01",
        "data_arc_in_days": 7,
        "observations_used": 41,
        "orbit_uncertainty": "8",
        "minimum_orbit_intersection": ".0032554",
        "jupiter_tisserand_invariant": "3.301",
        "epoch_osculation": "2458630.5",
        "eccentricity": ".6539861676419588",
        "semi_major_axis": "2.256462092667912",
        "inclination": "3.247037820169686",
        "ascending_node_longitude": "74.01866562968635",
        "orbital_period": "1238.056572016347",
        "perihelion_distance": ".7807670962546697",
        "perihelion_argument": "241.9634689267297",
        "aphelion_distance": "3.732157089081154",
        "perihelion_time": "2458679.330776686818",
        "mean_anomaly": "345.8010691881191",
        "mean_motion": ".2907783118615413",
        "equinox": "J2000",
        "orbit_class": {
            "orbit_class_type": "APO",
            "orbit_class_description": "Near-Earth asteroid orbits which cross the Earth’s orbit similar to that of 1862 Apollo",
            "orbit_class_range": "a (semi-major axis) > 1.0 AU; q (perihelion) < 1.017 AU"
        }
    },
    "is_sentry_object": false
}